ARIANE 5 R/B            
1 28499U 04049H   26002.00114912  .00002797  00000+0  31435-3 0  9990
2 28499  98.2526 168.0112 0083924 206.5199 153.1710 14.85079337135894
CZ-2D R/B               
1 28738U 05024B   26002.00819597  .00050271  00000+0  75957-3 0  9998
2 28738  97.3617  15.0034 0003038 263.8340  96.2568 15.54566837129408
ALOS (DAICHI)           
1 28931U 06002A   25351.73419158  .00001110  00000+0  19545-3 0  9994
2 28931  98.1098 303.1864 0001361 113.5739 246.5610 14.69501788 61443
H-2A R/B                
1 28932U 06002B   26001.93296735  .00016826  00000+0  86975-3 0  9995
2 28932  98.2322 143.3389 0054686 108.3215 252.3974 15.15036523 84322
RESURS-DK 1             
1 29228U 06021A   26002.13744122  .00005246  00000+0  30817-3 0  9994
2 29228  69.9346  49.1181 0006990 242.0385 118.0074 15.12300622 77461
CZ-4B R/B               
1 29507U 06046C   26002.09901509  .00008479  00000+0  43673-3 0  9995
2 29507  97.5708  47.1824 0034877 136.4133 223.9865 15.16112704 49957
CZ-2C R/B               
1 31114U 07010B   26001.93854640  .00000276  00000+0  14569-3 0  9998
2 31114  98.3975 118.5730 0059829 127.7632 232.8986 14.20219441970247
COSMO-SKYMED 1          
1 31598U 07023A   26002.19060103  .00006817  00000+0  61363-3 0  9991
2 31598  97.8826 192.7258 0001231  87.8800 272.2561 14.95945400  4965
COSMOS 2428             
1 31792U 07029A   26002.12808494  .00000345  00000+0  21118-3 0  9993
2 31792  70.9378 343.0719 0004849 355.1509   4.9564 14.12900515954697
SL-16 R/B               
1 31793U 07029B   26002.10924190  .00000195  00000+0  12574-3 0  9993
2 31793  70.9774 312.3390 0002051 270.3509 173.3988 14.14824518955954
KORONAS-FOTON           
1 33504U 09003A   26002.00895334  .00016165  00000+0  38186-3 0  9996
2 33504  82.4307 345.0952 0012743  45.8160 314.4131 15.41628748935460
CZ-2C R/B               
1 37731U 11030B   26001.79181010  .00002609  00000+0  33612-3 0  9996
2 37731  97.8434 320.4581 0052035 206.7005 191.9399 14.80973370780194
H-2A R/B                
1 38341U 12025E   26001.99324186  .00004591  00000+0  42196-3 0  9993
2 38341  98.4625 323.7896 0045020 169.0713 191.1494 14.94597263738255
SHIJIAN-16 (SJ-16)      
1 39358U 13057A   26002.18774118  .00003751  00000+0  37087-3 0  9994
2 39358  74.9737 310.9611 0017916 272.6422  87.2715 14.92075360661580
SL-4 R/B                
1 39679U 14021B   26002.03277273  .00018669  00000+0  43427-3 0  9995
2 39679  51.6089 301.9373 0100201 219.6161 139.7471 15.37204925646018
ALOS-2                  
1 39766U 14029A   26002.23580116  .00006958  00000+0  93784-3 0  9994
2 39766  97.9220 101.7900 0001354 102.9625 257.1738 14.79462426627045
YAOGAN-29               
1 41038U 15069A   26002.19759549  .00000546  00000+0  74068-4 0  9999
2 41038  98.0208  30.4341 0001451 148.3501 211.7799 14.82908446546022
ASTRO-H (HITOMI)        
1 41337U 16012A   26002.18992241  .00005608  00000+0  33530-3 0  9999
2 41337  31.0005  65.5192 0009580  24.2637 335.8450 15.09511830542173
HXMT (HUIYAN)           
1 42758U 17034A   26002.21072743  .00010203  00000+0  51846-3 0  9999
2 42758  43.0156  26.0107 0032187 176.8877 183.2176 15.16529715472449
CZ-2C R/B               
1 43521U 18054D   26002.19002976  .00165818  00000+0  87297-3 0  9991
2 43521  35.1338  41.7499 0012596 347.3005  12.7411 15.79103424418284
SAOCOM 1A               
1 43641U 18076A   26002.19513214 -.00000374  00000+0 -40490-4 0  9992
2 43641  97.8844 191.3187 0001338  83.2083 276.9282 14.82156709391517
H-2A R/B                
1 43682U 18084L   26002.12454829  .00029920  00000+0  78529-3 0  9994
2 43682  98.8762 205.4420 0026085 254.7629 105.0727 15.38257094395539
SAOCOM 1B               
1 46265U 20059A   26002.15885336  .00001257  00000+0  16444-3 0  9994
2 46265  97.8842 190.3829 0001478  84.3081 275.8301 14.82166530288896
CSS (TIANHE)            
1 48274U 21035A   26002.14205038  .00029116  00000+0  35128-3 0  9999
2 48274  41.4662 252.7694 0010192 202.3911 157.6483 15.60055172267210
COSMOS 2550             
1 48865U 21056A   26002.26643509 -.00000163  00000+0  86283-6 0  9993
2 48865  67.1418 241.8470 0008377 269.2707  90.7488 15.33830680253276
CZ-2C R/B               
1 52794U 22058K   26001.99813251  .00039963  00000+0  68375-3 0  9992
2 52794  50.1924 300.1532 0043928 281.5502  78.0537 15.49721165199777
CZ-2C R/B               
1 54039U 22132E   26001.99994325  .00048704  00000+0  68741-3 0  9991
2 54039  97.2936   3.6053 0019252 345.9837  14.0881 15.56219329179983
GSLV R/B                
1 54149U 22138AN  26001.98718468  .00005606  00000+0  49165-3 0  9993
2 54149  87.3818 188.6916 0023332  38.7073 321.5825 14.96255941173957
XRISM                   
1 57800U 23137A   26002.05571256  .00010479  00000+0  61268-3 0  9993
2 57800  31.0035 354.3569 0007606  91.3090 268.8420 15.10600013127704
ACS3                    
1 59588U 24077B   26001.89549895  .00040241  00000+0  33811-1 0  9998
2 59588  97.2533 317.9971 0070517 287.7478  71.5996 13.86596828 84933
SZ-21 MODULE            
1 66515U 25246C   26002.04942874  .00040185  00000+0  41968-3 0  9998
2 66515  41.4758 252.0509 0002575  18.3037 341.7895 15.63714409  7620
